{
    "links": {
        "self": "http://www.neowsapp.com/rest/v1/neo/54016951?api_key=iIulBulltgU6a56xZRHN4H3l9WmuAYTsLGpBGhQ2"
    },
    "id": "54016951",
    "neo_reference_id": "54016951",
    "name": "(2020 JC)",
    "designation": "2020 JC",
    "nasa_jpl_url": "http://ssd.jpl.nasa.gov/sbdb.cgi?sstr=54016951",
    "absolute_magnitude_h": 24.953,
    "estimated_diameter": {
        "kilometers": {
            "estimated_diameter_min": 0.0271615767,
            "estimated_diameter_max": 0.0607351319
        },
        "meters": {
            "estimated_diameter_min": 27.1615766965,
            "estimated_diameter_max": 60.7351318694
        },
        "miles": {
            "estimated_diameter_min": 0.0168774161,
            "estimated_diameter_max": 0.0377390496
        },
        "feet": {
            "estimated_diameter_min": 89.1127872889,
            "estimated_diameter_max": 199.2622500425
        }
    },
    "is_potentially_hazardous_asteroid": false,
    "close_approach_data": [
        {
            "close_approach_date": "2020-05-04",
            "close_approach_date_full": "2020-May-04 11:15",
            "epoch_date_close_approach": 1588590900000,
            "relative_velocity": {
                "kilometers_per_second": "10.7898514486",
                "kilometers_per_hour": "38843.4652149276",
                "miles_per_hour": "24135.8187053532"
            },
            "miss_distance": {
                "astronomical": "0.1033542944",
                "lunar": "40.2048205216",
                "kilometers": "15461582.297592928",
                "miles": "9607381.7395132864"
            },
            "orbiting_body": "Earth"
        },
        {
            "close_approach_date": "2020-10-09",
            "close_approach_date_full": "2020-Oct-09 14:17",
            "epoch_date_close_approach": 1602253020000,
            "relative_velocity": {
                "kilometers_per_second": "12.2493864458",
                "kilometers_per_hour": "44097.7912048105",
                "miles_per_hour": "27400.6525405668"
            },
            "miss_distance": {
                "astronomical": "0.296644122",
                "lunar": "115.394563458",
                "kilometers": "44377328.79922014",
                "miles": "27574793.455672332"
            },
            "orbiting_body": "Earth"
        }
    ],
    "orbital_data": {
        "orbit_id": "1",
        "orbit_determination_date": "2020-05-03 15:42:05",
        "first_observation_date": "2020-05-02",
        "last_observation_date": "2020-05-03",
        "data_arc_in_days": 1,
        "observations_used": 17,
        "orbit_uncertainty": "8",
        "minimum_orbit_intersection": ".0973906",
        "jupiter_tisserand_invariant": "5.278",
        "epoch_osculation": "2458972.5",
        "eccentricity": ".1147458991761781",
        "semi_major_axis": "1.184797910012993",
        "inclination": "20.75255206265404",
        "ascending_node_longitude": "220.2576952341436",
        "orbital_period": "471.047654883902",
        "perihelion_distance": "1.048847208486496",
        "perihelion_argument": "62.06388009767209",
        "aphelion_distance": "1.320748611539491",
        "perihelion_time": "2459037.954966358695",
        "mean_anomaly": "309.9757877046688",
        "mean_motion": ".7642538844370818",
        "equinox": "J2000",
        "orbit_class": {
            "orbit_class_type": "AMO",
            "orbit_class_description": "Near-Earth asteroid orbits similar to that of 1221 Amor",
            "orbit_class_range": "1.017 AU < q (perihelion) < 1.3 AU"
        }
    },
    "is_sentry_object": false
}